{
  "norad_id": 53176,
  "name": "STARLINK-4294",
  "history": [
    {
      "epoch": "2026-03-28T21:40:31.845504Z",
      "apogee_km": 540.6987355062656,
      "perigee_km": 538.8320087301736,
      "latitude_deg": 2.1355559685910784e-05,
      "longitude_deg": -88.67089132203759,
      "height_km": 540.6608626360467,
      "semi_major_axis_km": 6917.902372118219,
      "eccentricity": 0.00013492,
      "inclination_deg": 53.2174,
      "raan_deg": 62.7787,
      "arg_perigee_deg": 89.9862,
      "mean_anomaly_deg": 270.1285,
      "mean_motion_rev_day": 15.08832808
    },
    {
      "epoch": "2026-03-29T04:02:03.986880Z",
      "apogee_km": 540.706471380543,
      "perigee_km": 538.7846836005156,
      "latitude_deg": -4.241492742045859e-06,
      "longitude_deg": 174.49551539379962,
      "height_km": 540.6964749096023,
      "semi_major_axis_km": 6917.882577490529,
      "eccentricity": 0.0001389,
      "inclination_deg": 53.2176,
      "raan_deg": 61.5902,
      "arg_perigee_deg": 93.2937,
      "mean_anomaly_deg": 266.8214,
      "mean_motion_rev_day": 15.08839284
    },
    {
      "epoch": "2026-03-30T02:17:27.883104Z",
      "apogee_km": 540.7338717318489,
      "perigee_km": 538.7553575900565,
      "latitude_deg": 1.1927346749367693e-05,
      "longitude_deg": -164.4321872881624,
      "height_km": 540.5999337563178,
      "semi_major_axis_km": 6917.881614660952,
      "eccentricity": 0.000143,
      "inclination_deg": 53.2175,
      "raan_deg": 57.4261,
      "arg_perigee_deg": 87.6652,
      "mean_anomaly_deg": 272.4504,
      "mean_motion_rev_day": 15.08839599
    },
    {
      "epoch": "2026-03-31T14:51:20.113920Z",
      "apogee_km": 540.6358507983541,
      "perigee_km": 538.8413538671093,
      "latitude_deg": -3.5624166025218814e-06,
      "longitude_deg": -1.2419762984866356,
      "height_km": 540.7231459193579,
      "semi_major_axis_km": 6917.875602332731,
      "eccentricity": 0.0001297,
      "inclination_deg": 53.2169,
      "raan_deg": 50.5856,
      "arg_perigee_deg": 95.6795,
      "mean_anomaly_deg": 264.4345,
      "mean_motion_rev_day": 15.08841566
    },
    {
      "epoch": "2026-04-01T06:45:11.754720Z",
      "apogee_km": 540.7554325076471,
      "perigee_km": 538.7589282471899,
      "latitude_deg": 7.689675791622803e-07,
      "longitude_deg": 116.66496336803758,
      "height_km": 540.731962076445,
      "semi_major_axis_km": 6917.894180377418,
      "eccentricity": 0.0001443,
      "inclination_deg": 53.2178,
      "raan_deg": 47.6106,
      "arg_perigee_deg": 94.5474,
      "mean_anomaly_deg": 265.5683,
      "mean_motion_rev_day": 15.08835488
    },
    {
      "epoch": "2026-04-02T20:54:26.374176Z",
      "apogee_km": 540.6936643462714,
      "perigee_km": 538.7952593155151,
      "latitude_deg": 5.250284480005533e-06,
      "longitude_deg": -104.34717781093741,
      "height_km": 540.5711026395231,
      "semi_major_axis_km": 6917.8814618308925,
      "eccentricity": 0.00013721,
      "inclination_deg": 53.218,
      "raan_deg": 40.4763,
      "arg_perigee_deg": 85.8242,
      "mean_anomaly_deg": 274.2907,
      "mean_motion_rev_day": 15.08839649
    },
    {
      "epoch": "2026-04-03T12:48:18.201600Z",
      "apogee_km": 540.628393704078,
      "perigee_km": 538.8849461413838,
      "latitude_deg": 1.9916763341250006e-05,
      "longitude_deg": 13.559888979059776,
      "height_km": 540.5638137554677,
      "semi_major_axis_km": 6917.893669922731,
      "eccentricity": 0.00012601,
      "inclination_deg": 53.2173,
      "raan_deg": 37.5022,
      "arg_perigee_deg": 84.1602,
      "mean_anomaly_deg": 275.9534,
      "mean_motion_rev_day": 15.08835655
    },
    {
      "epoch": "2026-04-04T06:17:33.527040Z",
      "apogee_km": 540.8166756310593,
      "perigee_km": 538.7202735560395,
      "latitude_deg": 2.69723213723734e-05,
      "longitude_deg": 107.25854812143255,
      "height_km": 540.6276162249713,
      "semi_major_axis_km": 6917.905474593549,
      "eccentricity": 0.00015152,
      "inclination_deg": 53.2192,
      "raan_deg": 34.2329,
      "arg_perigee_deg": 88.0026,
      "mean_anomaly_deg": 272.114,
      "mean_motion_rev_day": 15.08831793
    },
    {
      "epoch": "2026-04-05T02:57:33.869952Z",
      "apogee_km": 540.6787477700427,
      "perigee_km": 538.8134097766824,
      "latitude_deg": 2.4185690776522585e-05,
      "longitude_deg": 152.54226257483612,
      "height_km": 540.7908760853002,
      "semi_major_axis_km": 6917.883078773362,
      "eccentricity": 0.00013482,
      "inclination_deg": 53.2189,
      "raan_deg": 30.3668,
      "arg_perigee_deg": 99.1864,
      "mean_anomaly_deg": 260.9281,
      "mean_motion_rev_day": 15.0883912
    },
    {
      "epoch": "2026-04-06T04:23:44.005344Z",
      "apogee_km": 540.6610996942118,
      "perigee_km": 538.8293828343694,
      "latitude_deg": 7.175914989086409e-05,
      "longitude_deg": 125.19683961328066,
      "height_km": 540.844478257294,
      "semi_major_axis_km": 6917.88224126429,
      "eccentricity": 0.00013239,
      "inclination_deg": 53.2179,
      "raan_deg": 25.6082,
      "arg_perigee_deg": 102.8314,
      "mean_anomaly_deg": 257.2827,
      "mean_motion_rev_day": 15.08839394
    },
    {
      "epoch": "2026-04-07T04:14:31.403040Z",
      "apogee_km": 540.6537783998838,
      "perigee_km": 538.8310555311009,
      "latitude_deg": 3.109628990001692e-05,
      "longitude_deg": 122.06037550607483,
      "height_km": 540.7122619522795,
      "semi_major_axis_km": 6917.879416965492,
      "eccentricity": 0.00013174,
      "inclination_deg": 53.2174,
      "raan_deg": 21.1486,
      "arg_perigee_deg": 94.6624,
      "mean_anomaly_deg": 265.4519,
      "mean_motion_rev_day": 15.08840318
    },
    {
      "epoch": "2026-04-07T18:32:59.679744Z",
      "apogee_km": 540.575674767887,
      "perigee_km": 538.9056990942609,
      "latitude_deg": 6.684266581511865e-05,
      "longitude_deg": -95.8210219764378,
      "height_km": 540.7517469135771,
      "semi_major_axis_km": 6917.877686931073,
      "eccentricity": 0.0001207,
      "inclination_deg": 53.2186,
      "raan_deg": 18.4726,
      "arg_perigee_deg": 97.9171,
      "mean_anomaly_deg": 262.1959,
      "mean_motion_rev_day": 15.08840884
    },
    {
      "epoch": "2026-04-08T04:05:18.771360Z",
      "apogee_km": 540.1157219205688,
      "perigee_km": 539.3898969217644,
      "latitude_deg": 3.670279989517693e-05,
      "longitude_deg": 118.92376813870432,
      "height_km": 540.7583605940599,
      "semi_major_axis_km": 6917.889809421166,
      "eccentricity": 5.246e-05,
      "inclination_deg": 53.2192,
      "raan_deg": 16.6887,
      "arg_perigee_deg": 107.3993,
      "mean_anomaly_deg": 252.7057,
      "mean_motion_rev_day": 15.08836918
    },
    {
      "epoch": "2026-04-09T03:56:05.902080Z",
      "apogee_km": 540.6088738528388,
      "perigee_km": 538.8529806155475,
      "latitude_deg": 4.2024209057995256e-05,
      "longitude_deg": 115.78775317409706,
      "height_km": 540.6587451995802,
      "semi_major_axis_km": 6917.867927234192,
      "eccentricity": 0.00012691,
      "inclination_deg": 53.2178,
      "raan_deg": 12.2284,
      "arg_perigee_deg": 92.0854,
      "mean_anomaly_deg": 268.0284,
      "mean_motion_rev_day": 15.08844077
    },
    {
      "epoch": "2026-04-10T03:46:51.881088Z",
      "apogee_km": 540.5369969127896,
      "perigee_km": 538.8590068547337,
      "latitude_deg": -4.843892365767239e-06,
      "longitude_deg": 112.65431157466404,
      "height_km": 540.5668648313206,
      "semi_major_axis_km": 6917.835001883762,
      "eccentricity": 0.00012128,
      "inclination_deg": 53.2194,
      "raan_deg": 7.7659,
      "arg_perigee_deg": 88.1376,
      "mean_anomaly_deg": 271.9755,
      "mean_motion_rev_day": 15.08854849
    },
    {
      "epoch": "2026-04-11T09:59:12.316128Z",
      "apogee_km": 540.5789053102008,
      "perigee_km": 538.8867943449332,
      "latitude_deg": -1.5603668595345577e-05,
      "longitude_deg": 12.68005186653889,
      "height_km": 540.6004305134462,
      "semi_major_axis_km": 6917.869849827567,
      "eccentricity": 0.0001223,
      "inclination_deg": 53.2175,
      "raan_deg": 2.1173,
      "arg_perigee_deg": 88.0811,
      "mean_anomaly_deg": 272.0321,
      "mean_motion_rev_day": 15.08843448
    },
    {
      "epoch": "2026-04-13T01:43:51.101472Z",
      "apogee_km": 540.7088009770532,
      "perigee_km": 538.7933761230952,
      "latitude_deg": -3.495045717671748e-05,
      "longitude_deg": 127.45449803029352,
      "height_km": 540.7134910566718,
      "semi_major_axis_km": 6917.888088550074,
      "eccentricity": 0.00013844,
      "inclination_deg": 53.2196,
      "raan_deg": 354.6856,
      "arg_perigee_deg": 93.9809,
      "mean_anomaly_deg": 266.1341,
      "mean_motion_rev_day": 15.08837481
    },
    {
      "epoch": "2026-04-14T20:39:15.490080Z",
      "apogee_km": 540.6629319570311,
      "perigee_km": 538.8089420099195,
      "latitude_deg": 2.4632752251952902e-05,
      "longitude_deg": -166.19007812061645,
      "height_km": 540.6318933005077,
      "semi_major_axis_km": 6917.872936983475,
      "eccentricity": 0.000134,
      "inclination_deg": 53.2181,
      "raan_deg": 346.6554,
      "arg_perigee_deg": 90.0093,
      "mean_anomaly_deg": 270.1053,
      "mean_motion_rev_day": 15.08842438
    },
    {
      "epoch": "2026-04-15T20:30:02.854080Z",
      "apogee_km": 540.7036648419935,
      "perigee_km": 538.7915615349084,
      "latitude_deg": -3.869727004956185e-05,
      "longitude_deg": -169.32831383198305,
      "height_km": 540.6574324452988,
      "semi_major_axis_km": 6917.88461318845,
      "eccentricity": 0.0001382,
      "inclination_deg": 53.2172,
      "raan_deg": 342.1939,
      "arg_perigee_deg": 90.8486,
      "mean_anomaly_deg": 269.2664,
      "mean_motion_rev_day": 15.08838618
    }
  ]
}